NORAD_CAT_ID,OBJECT_NAME,OBJECT_TYPE,EPOCH,MEAN_MOTION,ECCENTRICITY,INCLINATION,RA_OF_ASC_NODE,ARG_OF_PERICENTER,MEAN_ANOMALY,BSTAR,MEAN_MOTION_DOT,MEAN_MOTION_DDOT,TLE_LINE0,TLE_LINE1,TLE_LINE2,SEMIMAJOR_AXIS,PERIOD,APOGEE,PERIGEE,DECAYED
53259.0,STARLINK-4140,PAYLOAD,2023-01-01 12:02:35,15.08837095,0.0002469,53.2185,15.8621,29.4054,330.7077,-0.00010671,-1.986e-05,0.0,0 STARLINK-4140,1 53259U 22086T   23001.50179585 -.00001986  00000-0 -10671-3 0  9992,2 53259  53.2185  15.8621 0002469  29.4054 330.7077 15.08837095 25288,6917.889,95.438,541.462,538.0459999999998,0.0
53259.0,STARLINK-4140,PAYLOAD,2023-01-02 10:17:58,15.08840514,0.0002479,53.2185,11.6986,29.7266,330.3866,-8.5559e-05,-1.65e-05,0.0,0 STARLINK-4140,1 53259U 22086T   23002.42915453 -.00001650  00000-0 -85559-4 0  9992,2 53259  53.2185  11.6986 0002479  29.7266 330.3866 15.08840514 25603,6917.879,95.438,541.4590000000002,538.029,0.0
53259.0,STARLINK-4140,PAYLOAD,2023-01-03 06:58:00,15.08832584,0.0002488,53.2188,7.832999999999997,28.4358,331.677,0.00019207,2.769e-05,0.0,0 STARLINK-4140,1 53259U 22086T   23003.29027812  .00002769  00000-0  19207-3 0  9997,2 53259  53.2188   7.8330 0002488  28.4358 331.6770 15.08832584 25554,6917.903,95.438,541.489,538.047,0.0
53259.0,STARLINK-4140,PAYLOAD,2023-01-03 11:44:09,15.08838629,0.0002531,53.2178,6.9403,26.9933,333.119,0.00029665,4.436e-05,0.0,0 STARLINK-4140,1 53259U 22086T   23003.48899954  .00004436  00000-0  29665-3 0  9994,2 53259  53.2178   6.9403 0002531  26.9933 333.1190 15.08838629 25767,6917.885,95.438,541.5,537.999,0.0
53259.0,STARLINK-4140,PAYLOAD,2023-01-04 11:34:57,15.088352300000002,0.0002566,53.2183,2.4798,29.7285,330.3852,0.0001112,1.482e-05,0.0,0 STARLINK-4140,1 53259U 22086T   23004.48260748  .00001482  00000-0  11120-3 0  9993,2 53259  53.2183   2.4798 0002566  29.7285 330.3852 15.08835230 25736,6917.895,95.438,541.535,537.985,0.0
53259.0,STARLINK-4140,PAYLOAD,2023-01-04 16:21:06,15.08843142,0.0002583999999999,53.2185,1.5886,30.9575,329.1569,0.0001864,2.68e-05,0.0,0 STARLINK-4140,1 53259U 22086T   23004.68132400  .00002680  00000-0  18640-3 0  9993,2 53259  53.2185   1.5886 0002584  30.9575 329.1569 15.08843142 25947,6917.871,95.437,541.523,537.948,0.0
53259.0,STARLINK-4140,PAYLOAD,2023-01-05 06:39:33,15.0886755,0.0002587,53.2177,358.9118,30.5832,329.5311,0.00060931,9.43e-05,0.0,0 STARLINK-4140,1 53259U 22086T   23005.27747170  .00009430  00000-0  60931-3 0  9995,2 53259  53.2177 358.9118 0002587  30.5832 329.5311 15.08867550 25858,6917.795999999999,95.436,541.451,537.872,0.0
53259.0,STARLINK-4140,PAYLOAD,2023-01-05 09:50:19,15.08869524,0.0002381999999999,53.2174,358.3177,26.066,334.0451,0.00084442,0.00013187,0.0,0 STARLINK-4140,1 53259U 22086T   23005.40995187  .00013187  00000-0  84442-3 0  9990,2 53259  53.2174 358.3177 0002382  26.0660 334.0451 15.08869524 26058,6917.79,95.436,541.303,538.007,0.0
53259.0,STARLINK-4140,PAYLOAD,2023-01-05 16:11:51,15.08870127,0.0002484999999999,53.2169,357.1287,28.1352,331.9774,0.00026401,3.919e-05,0.0,0 STARLINK-4140,1 53259U 22086T   23005.67490665  .00003919  00000-0  26401-3 0  9993,2 53259  53.2169 357.1287 0002485  28.1352 331.9774 15.08870127 26095,6917.788000000001,95.436,541.372,537.934,0.0
53259.0,STARLINK-4140,PAYLOAD,2023-01-06 08:05:43,15.08840745,0.0002606,53.2169,354.1543,26.3444,333.7680000000001,-0.00038456,-6.404e-05,0.0,0 STARLINK-4140,1 53259U 22086T   23006.33730879 -.00006404  00000-0 -38456-3 0  9998,2 53259  53.2169 354.1543 0002606  26.3444 333.7680 15.08840745 26015,6917.8780000000015,95.438,541.5459999999998,537.94,0.0
53259.0,STARLINK-4140,PAYLOAD,2023-01-06 23:59:34,15.08847449,0.0002361,53.2173,351.1803,20.8832,339.2256,0.00091652,0.00014332,0.0,0 STARLINK-4140,1 53259U 22086T   23006.99970851  .00014332  00000-0  91652-3 0  9990,2 53259  53.2173 351.1803 0002361  20.8832 339.2256 15.08847449 26113,6917.858,95.437,541.356,538.089,0.0
53259.0,STARLINK-4140,PAYLOAD,2023-01-07 15:53:27,15.08829931,0.0003484,53.216,348.2071,46.6486,313.4796,0.0010824,0.00016977,0.0,0 STARLINK-4140,1 53259U 22086T   23007.66212238  .00016977  00000-0  10824-2 0  9991,2 53259  53.2160 348.2071 0003484  46.6486 313.4796 15.08829931 26211,6917.911,95.438,542.186,537.366,0.0
53259.0,STARLINK-4140,PAYLOAD,2023-01-07 22:14:59,15.08829167,0.0002901,53.2159,347.0192,34.3828,325.7352,0.00098255,0.0001538,0.0,0 STARLINK-4140,1 53259U 22086T   23007.92708134  .00015380  00000-0  98255-3 0  9997,2 53259  53.2159 347.0192 0002901  34.3828 325.7352 15.08829167 26436,6917.914000000002,95.438,541.785,537.7719999999998,0.0
53259.0,STARLINK-4140,PAYLOAD,2023-01-08 07:47:18,15.08828524,0.0002745,53.2167,345.2346,30.9605,329.1548,0.00043976,6.715e-05,0.0,0 STARLINK-4140,1 53259U 22086T   23008.32452489  .00006715  00000-0  43976-3 0  9993,2 53259  53.2167 345.2346 0002745  30.9605 329.1548 15.08828524 26315,6917.915,95.438,541.679,537.881,0.0
53259.0,STARLINK-4140,PAYLOAD,2023-01-09 04:27:19,15.08856936,0.0002784,53.2177,341.3688,33.1702,326.9464,0.00092921,0.00014538,0.0,0 STARLINK-4140,1 53259U 22086T   23009.18564194  .00014538  00000-0  92921-3 0  9991,2 53259  53.2177 341.3688 0002784  33.1702 326.9464 15.08856936 26442,6917.8290000000015,95.436,541.62,537.768,0.0
53259.0,STARLINK-4140,PAYLOAD,2023-01-09 15:35:01,15.08844253,0.0002627,53.2181,339.2862,32.0693,328.0458,0.00017882,2.559e-05,0.0,0 STARLINK-4140,1 53259U 22086T   23009.64932218  .00002559  00000-0  17882-3 0  9991,2 53259  53.2181 339.2862 0002627  32.0693 328.0458 15.08844253 26513,6917.866999999998,95.437,541.55,537.915,0.0
53259.0,STARLINK-4140,PAYLOAD,2023-01-10 04:18:04,15.08893598,0.0002503,53.2174,336.9066,23.409,336.7015,0.0013717,0.00021643,0.0,0 STARLINK-4140,1 53259U 22086T   23010.17922368  .00021643  00000-0  13717-2 0  9993,2 53259  53.2174 336.9066 0002503  23.4090 336.7015 15.08893598 26592,6917.717,95.434,541.313,537.85,0.0
53259.0,STARLINK-4140,PAYLOAD,2023-01-10 07:28:51,15.08851488,0.0002708,53.22,336.3116,25.7988,334.3138,4.6417e-05,4.51e-06,0.0,0 STARLINK-4140,1 53259U 22086T   23010.31171215  .00000451  00000-0  46417-4 0  9995,2 53259  53.2200 336.3116 0002708  25.7988 334.3138 15.08851488 26615,6917.845,95.437,541.5840000000002,537.837,0.0
53259.0,STARLINK-4140,PAYLOAD,2023-01-11 04:08:52,15.08847794,0.0002512,53.2183,332.4478,23.3031,336.8074,0.00022167,3.242e-05,0.0,0 STARLINK-4140,1 53259U 22086T   23011.17283342  .00003242  00000-0  22167-3 0  9991,2 53259  53.2183 332.4478 0002512  23.3031 336.8074 15.08847794 26744,6917.857,95.437,541.4590000000002,537.984,0.0
53259.0,STARLINK-4140,PAYLOAD,2023-01-11 13:41:12,15.08828605,0.0002581,53.2189,330.6638,29.4809,330.6329,0.00045277,6.923e-05,0.0,0 STARLINK-4140,1 53259U 22086T   23011.57028231  .00006923  00000-0  45277-3 0  9995,2 53259  53.2189 330.6638 0002581  29.4809 330.6329 15.08828605 26806,6917.915,95.438,541.566,537.995,0.0
53259.0,STARLINK-4140,PAYLOAD,2023-01-11 21:38:08,15.08818059,0.0002519,53.2199,329.1808,32.3105,327.8041,0.00013701,1.892e-05,0.0,0 STARLINK-4140,1 53259U 22086T   23011.90148934  .00001892  00000-0  13701-3 0  9992,2 53259  53.2199 329.1808 0002519  32.3105 327.8041 15.08818059 27039,6917.946999999999,95.439,541.555,538.07,0.0
53259.0,STARLINK-4140,PAYLOAD,2023-01-12 05:35:04,15.08830957,0.0002091,53.2191,327.6944,39.364,320.7504,0.00042017,6.404e-05,0.0,0 STARLINK-4140,1 53259U 22086T   23012.23269070  .00006404  00000-0  42017-3 0  9990,2 53259  53.2191 327.6944 0002091  39.3640 320.7504 15.08830957 26903,6917.908,95.438,541.22,538.326,0.0
53259.0,STARLINK-4140,PAYLOAD,2023-01-12 21:28:56,15.08827942,0.0002196,53.2177,324.7181,42.449,317.6671,0.00031968,4.802e-05,0.0,0 STARLINK-4140,1 53259U 22086T   23012.89509961  .00004802  00000-0  31968-3 0  9991,2 53259  53.2177 324.7181 0002196  42.4490 317.6671 15.08827942 27183,6917.917,95.438,541.3009999999998,538.263,0.0
53259.0,STARLINK-4140,PAYLOAD,2023-01-13 00:39:42,15.08829445,0.0002358,53.2185,324.1198,34.5304,325.5841,0.00039273,5.966e-05,0.0,0 STARLINK-4140,1 53259U 22086T   23013.02757987  .00005966  00000-0  39273-3 0  9999,2 53259  53.2185 324.1198 0002358  34.5304 325.5841 15.08829445 27020,6917.913000000001,95.438,541.409,538.146,0.0
53259.0,STARLINK-4140,PAYLOAD,2023-01-13 03:50:28,15.08843029,0.0002013,53.2177,323.5277,41.3647,318.7498,0.00074726,0.00011626,0.0,0 STARLINK-4140,1 53259U 22086T   23013.16005707  .00011626  00000-0  74726-3 0  9992,2 53259  53.2177 323.5277 0002013  41.3647 318.7498 15.08843029 27044,6917.871,95.437,541.129,538.344,0.0
53259.0,STARLINK-4140,PAYLOAD,2023-01-13 13:22:47,15.08841188,0.0001838,53.2174,321.7445,47.7529,312.3619,0.0005422,8.352e-05,0.0,0 STARLINK-4140,1 53259U 22086T   23013.55749863  .00008352  00000-0  54220-3 0  9992,2 53259  53.2174 321.7445 0001838  47.7529 312.3619 15.08841188 27286,6917.877,95.437,541.013,538.47,0.0
53259.0,STARLINK-4140,PAYLOAD,2023-01-15 05:07:25,15.08848065,0.0002159,53.2174,314.3111,53.0716,307.0474,0.0005201,8.001e-05,0.0,0 STARLINK-4140,1 53259U 22086T   23015.21349465  .00008001  00000-0  52010-3 0  9997,2 53259  53.2174 314.3111 0002159  53.0716 307.0474 15.08848065 27358,6917.856,95.437,541.214,538.227,0.0
53259.0,STARLINK-4140,PAYLOAD,2023-01-16 01:47:26,15.08852665,0.0001211999999999,53.2195,310.442,64.2296,295.8821,0.00026584,3.947e-05,0.0,0 STARLINK-4140,1 53259U 22086T   23016.07460941  .00003947  00000-0  26584-3 0  9996,2 53259  53.2195 310.4420 0001212  64.2296 295.8821 15.08852665 27482,6917.842,95.437,540.545,538.868,0.0
53259.0,STARLINK-4140,PAYLOAD,2023-01-16 12:55:08,15.088456900000002,0.0001868,53.2192,308.3619,70.4311,289.6883,0.00016587,2.353e-05,0.0,0 STARLINK-4140,1 53259U 22086T   23016.53828780  .00002353  00000-0  16587-3 0  9998,2 53259  53.2192 308.3619 0001868  70.4311 289.6883 15.08845690 27736,6917.863,95.437,541.02,538.436,0.0
